"street","city","zip","state"
"8492  LAHONTAN DR","TRUCKEE","96161","CA"
"2106  CIRBY WAY","ROSEVILLE","95661","CA"
"8053  CANTATA WAY","ANTELOPE","95843","CA"
"5945  SILVER SHADOW CIR","SACRAMENTO","95823","CA"
"6408  EMERALD DR","ROCKLIN","95677","CA"
"9841  FALL VALLEY WAY","SACRAMENTO","95829","CA"
"1724  CASTERBRIDGE DR","ROSEVILLE","95747","CA"
"10767  MOUNT VERNON RD","AUBURN","95603","CA"
"1735  CHELSEA WAY","ROSEVILLE","95661","CA"
"140  MIDWAY AVE","AUBURN","95603","CA"
"2953  DENISE CT","WEST SACRAMENTO","95691","CA"
"6900  FLINTWOOD WAY","SACRAMENTO","95831","CA"
"221  WILD OAK CT","LINCOLN","95648","CA"
"9366  LANGDON CT","ELK GROVE","95624","CA"
"9366  RINGE CIR","ELK GROVE","95624","CA"
"5209  LAGUNA PARK DR","ELK GROVE","95758","CA"
"2065  CASTELLEJA CT","CARMICHAEL","95608","CA"
"4520  ARDEN WAY","SACRAMENTO","95864","CA"
"4908  VAN STEYN CT","ELK GROVE","95757","CA"
"8695  TARATA PL","ELK GROVE","95624","CA"
"1315  WENDY CT","ROSEVILLE","95661","CA"
"100  HAYWAGON CT","LINCOLN","95648","CA"
"1111  MARKHAM WAY","SACRAMENTO","95818","CA"
"416  SUTHERLAND RANCH LN","ROSEVILLE","95678","CA"
"130  GILDED ROCK CIR","FOLSOM","95630","CA"
"1324  COPPING WAY","FOLSOM","95630","CA"
"2625  5TH AVE","SACRAMENTO","95818","CA"
"6408  FILMORE CT","ROCKLIN","95765","CA"
"4970  ARTESIA RD","SHINGLE SPRINGS","95682","CA"
"416  19TH ST","SACRAMENTO","95814","CA"
"8808  WATER SONG CIR","ROSEVILLE","95747","CA"
"6166  HICKORY LN","FORESTHILL","95631","CA"
"3872  SWEETWATER DR","ROCKLIN","95677","CA"
"7531  FESLER CT","CITRUS HEIGHTS","95610","CA"
"3516  KERSEY LN","SACRAMENTO","95864","CA"
"3301  KENSINGTON DR","EL DORADO HILLS","95762","CA"
"2095  BLACKHEATH LN","ROSEVILLE","95678","CA"
"4106 D AMERICAN RIVER DR","SACRAMENTO","95864","CA"
"4232  ROSE CREEK RD","ROSEVILLE","95747","CA"
"1416  ARROWWOOD LN","ROSEVILLE","95747","CA"
"7080  RANCHO VERDE LN","LOOMIS","95650","CA"
"8513  ARCADE OAKS CT","ORANGEVALE","95662","CA"
"110  DUNBARTON CT","GRANITE BAY","95746","CA"
"1682  GALLINGER CT","FOLSOM","95630","CA"
"1937  ALEXANDER DR","FOLSOM","95630","CA"
"3835  NORTHCLIFF LN","ROSEVILLE","95747","CA"
"15551  PONDEROSA LN","AUBURN","95603","CA"
"2063  FRASCATI DR","EL DORADO HILLS","95762","CA"
"2836  HONEYSUCKLE WAY","SACRAMENTO","95826","CA"
"8412  SUNBLAZE WAY","SACRAMENTO","95823","CA"
"5  PARK WEST CT","SACRAMENTO","95831","CA"
"1620  ROCKYBEND DR","SACRAMENTO","95833","CA"
"3253  LOWTHER WAY","ANTELOPE","95843","CA"
"6916  RICHMAN WAY","SACRAMENTO","95828","CA"
"7127  MURDOCK WAY","CARMICHAEL","95608","CA"
"4550  79TH ST","SACRAMENTO","95820","CA"
"341  ARCADE BLVD","SACRAMENTO","95815","CA"
"210  LIVE OAK CIR","ROSEVILLE","95678","CA"
"6801  BURDETT WAY","SACRAMENTO","95823","CA"
"8087  BRIAR RIDGE LN","CITRUS HEIGHTS","95610","CA"
"2529  GANZAN WAY","RANCHO CORDOVA","95670","CA"
"3701  CHAMBERLAIN WAY","CARMICHAEL","95608","CA"
"507 A HYACINTH CT Unit A","ROSEVILLE","95678","CA"
"5859  62ND ST","SACRAMENTO","95824","CA"
"7653  LILY MAR LN","ANTELOPE","95843","CA"
"1199  NORTH AVE","SACRAMENTO","95838","CA"
"620  Q ST","RIO LINDA","95673","CA"
"239  COOKINGHAM WAY","SACRAMENTO","95838","CA"
"28323  FORESTHILL RD","FORESTHILL","95631","CA"
"1516  HIGHLAND CIR","PLACERVILLE","95667","CA"
"1644  JASMINE WAY","LINCOLN","95648","CA"
"119  MARGARET DR","TWIN BRIDGES","95735","CA"
"7116  ELVORA WAY","ELK GROVE","95757","CA"
"766  SHASTA OAKS CT","ROSEVILLE","95678","CA"
"5648  TUPELO DR","SACRAMENTO","95842","CA"
"8235  BENJAMIN DR","ANTELOPE","95843","CA"
"5843  14TH AVE","SACRAMENTO","95820","CA"
"1  EBONY CT","SACRAMENTO","95823","CA"
"3207  GROVELAND WAY","ANTELOPE","95843","CA"
"3003  CONSTELLATION AVE","PLACERVILLE","95667","CA"
"7119  KENNETH AVE","CITRUS HEIGHTS","95610","CA"
"8853  BRIDALSMITH DR","SACRAMENTO","95828","CA"
"9448  CANMOOR CIR","ELK GROVE","95758","CA"
"1538  SQUAW VALLEY DR","WOODLAND","95776","CA"
"8811  KENTSHIRE WAY","SACRAMENTO","95828","CA"
"7706  MUIRWOOD WAY","CITRUS HEIGHTS","95610","CA"
"6001  JEANINE DR","SACRAMENTO","95842","CA"
"5721  RIDGEPOINT DR","ANTELOPE","95843","CA"
"5405  TOPAZ AVE","ROCKLIN","95677","CA"
"9624  SWAN LAKE DR","GRANITE BAY","95746","CA"
"3805  GOLD RIDGE TRL","POLLOCK PINES","95726","CA"
"1312  GLADSTONE DR","SACRAMENTO","95864","CA"
"284  HARTNELL PL","SACRAMENTO","95825","CA"
"4501  WYMAN DR","SACRAMENTO","95821","CA"
"3152  GLENTANA WAY","ANTELOPE","95843","CA"
"541  SENATOR AVE","SACRAMENTO","95833","CA"
"7006  KINNEY ST","ORANGEVALE","95662","CA"
"27  ROSTO CT","SACRAMENTO","95823","CA"
"6760  18TH AVE","SACRAMENTO","95820","CA"
"1846  SMITH FLAT RD","PLACERVILLE","95667","CA"
"4217  SHANDWICK DR","ANTELOPE","95843","CA"
"8731  LOS BANOS WAY","ELK GROVE","95624","CA"
"3810  13TH AVE","SACRAMENTO","95820","CA"
"10913  ANZA WAY","RANCHO CORDOVA","95670","CA"
"809  HARVEY WAY","SACRAMENTO","95831","CA"
"6710  PAQUIN CT","SACRAMENTO","95828","CA"
"3311  ARBOR WAY","SACRAMENTO","95821","CA"
"449  TENAYA AVE","SACRAMENTO","95833","CA"
"815  NATOMA ST","FOLSOM","95630","CA"
"1305  MONROE CT","WOODLAND","95776","CA"
"8575  NEW MOUNTAIN WAY","SACRAMENTO","95828","CA"
"6718  SPRIG DR","SACRAMENTO","95842","CA"
"2621  NORWOOD AVE","SACRAMENTO","95815","CA"
"39  DEL VISTA CIR","SACRAMENTO","95823","CA"
"27  BLUEWIND CT","SACRAMENTO","95838","CA"
"4904  EARLCORT CIR","SACRAMENTO","95842","CA"
"3921  50TH ST","SACRAMENTO","95820","CA"
"3943  WARD AVE","NORTH HIGHLANDS","95660","CA"
"4544  WINTER OAK WAY","ANTELOPE","95843","CA"
"7956  GRANDSTAFF DR","SACRAMENTO","95823","CA"
"780  NORTHEY DR","SACRAMENTO","95833","CA"
"4280  ARCHEAN WAY","SACRAMENTO","95823","CA"
"497  ARCADE BLVD","SACRAMENTO","95815","CA"
"2280  HURLEY WAY Unit 73","SACRAMENTO","95825","CA"
"2927  SAN JOSE WAY","SACRAMENTO","95817","CA"
"842  ELEANOR AVE","SACRAMENTO","95815","CA"
"7108  CHANDLER DR","SACRAMENTO","95828","CA"
"3853  38TH ST","SACRAMENTO","95820","CA"
"5810  WALERGA RD","SACRAMENTO","95842","CA"
"3701  FABERGE WAY","SACRAMENTO","95826","CA"
"5170  BELLA VISTA CIR","FORESTHILL","95631","CA"
"6042  DEL ORO RD","GRANITE BAY","95746","CA"
"3346  11TH ST","SACRAMENTO","95818","CA"
"435  LINCOLN WAY","AUBURN","95603","CA"
"553  CRAZY HORSE CT","CAMERON PARK","95682","CA"
"6151  PRESTON CIR","ROCKLIN","95765","CA"
"2248  MARSHALL WAY","SACRAMENTO","95818","CA"
"9362  PARKSTONE CIR","ROSEVILLE","95747","CA"
"642  F ST","DAVIS","95616","CA"
"2283  MURATURA WAY","EL DORADO HILLS","95762","CA"
"5384  SANDBURG DR","SACRAMENTO","95819","CA"
"9812  MIRA DEL RIO DR","SACRAMENTO","95827","CA"
"2269  CALIFORNIA AVE","SOUTH LAKE TAHOE","96150","CA"
"2429  BLACK TERN WAY","ELK GROVE","95757","CA"
"4199  DENA WAY","SACRAMENTO","95821","CA"
"2917  HARBOUR VIEW LN","ELK GROVE","95758","CA"
"3467  FENDANT DR","RANCHO CORDOVA","95670","CA"
"2165  NUGGET CREEK CT","GOLD RIVER","95670","CA"
"6820  COPPER GLEN CIR","ROSEVILLE","95678","CA"
"4051  TILDEN DR","ROSEVILLE","95661","CA"
"9200  BROCKWAY SPRINGS DR","KINGS BEACH","96143","CA"
"1058  40TH ST","SACRAMENTO","95819","CA"
"117  CHIP SHOT WAY","ROSEVILLE","95678","CA"
"3111  BECERRA WAY","SACRAMENTO","95821","CA"
"2735  MARTY WAY","SACRAMENTO","95818","CA"
"1289  LORDEN CT","FOLSOM","95630","CA"
"16  CADMAN CT","SACRAMENTO","95835","CA"
"1208  SEGOLILY LN","LINCOLN","95648","CA"
"5232  WOODWELL CT","ANTELOPE","95843","CA"
"1433  CLAREMONT WAY","SACRAMENTO","95822","CA"
"225  BALD EAGLE CT","ROSEVILLE","95747","CA"
"1111  KENTUCKY FLAT RD","GEORGETOWN","95634","CA"
"6801  CASTRO VERDE WAY","ELK GROVE","95757","CA"
"1205  8TH AVE","SACRAMENTO","95818","CA"
"4161  SIERRA SPRINGS DR","POLLOCK PINES","95726","CA"
"6612  GRAND CANYON DR","ROCKLIN","95765","CA"
"1794  HARWOOD WAY","SACRAMENTO","95835","CA"
"7851  DOE TRAIL WAY","ANTELOPE","95843","CA"
"340  PRINCETON CT","ROSEVILLE","95661","CA"
"10155  FESTA CT","ELK GROVE","95757","CA"
"3600  ARDMORE RD","SACRAMENTO","95821","CA"
"6340  SAMOA WAY","CARMICHAEL","95608","CA"
"320  GROUSE DR","GALT","95632","CA"
"320  GROUSE DR","GALT","95632","CA"
"320  GROUSE DR","GALT","95632","CA"
"707  WARD WAY","FOLSOM","95630","CA"
"3305  KNOB HILL CT","ROCKLIN","95765","CA"
"3237  BABSON DR","ELK GROVE","95758","CA"
"9017  LANETRY CT","ELK GROVE","95758","CA"
"6819  24TH ST","RIO LINDA","95673","CA"
"4575  SAN SEBASTIAN WAY","SACRAMENTO","95823","CA"
"14  EL CONDE CT","SACRAMENTO","95833","CA"
"5136  OLEANDER DR","CARMICHAEL","95608","CA"
"8428  MILKY WAY","ORANGEVALE","95662","CA"
"9256  HEATHFIELD WAY","SACRAMENTO","95829","CA"
"7219  ALMOND AVE","ORANGEVALE","95662","CA"
"8549  DEWBERRY WAY","ELK GROVE","95624","CA"
"8629  UNDERHILL DR","SACRAMENTO","95828","CA"
"186  HERRINGTON DR","AUBURN","95603","CA"
"9455  ACAPULCO WAY","ELK GROVE","95624","CA"
"5784  SIERRA SPRINGS CT","POLLOCK PINES","95726","CA"
"4883  V ST","SACRAMENTO","95817","CA"
"8449  CUTLER WAY","SACRAMENTO","95828","CA"
"1810  ZURLO WAY","SACRAMENTO","95835","CA"
"9401  RIFTON CT","ELK GROVE","95758","CA"
"4308  GREENHOLME DR Unit 47","SACRAMENTO","95842","CA"
"2582  CLUBHOUSE DR","ROCKLIN","95765","CA"
"8720  SEVILLE CIR","GRANITE BAY","95746","CA"
"1028  CAMBRIA WAY","EL DORADO HILLS","95762","CA"
"9035  CAMINO DEL AVION","GRANITE BAY","95746","CA"
"3602  CLOVER VALLEY RD","ROCKLIN","95677","CA"
"105  CRESTA CT","LINCOLN","95648","CA"
"5000  ARTESIA RD","SHINGLE SPRINGS","95682","CA"
"1317  LA SIERRA DR","SACRAMENTO","95864","CA"
"1844  SWINTON DR","FOLSOM","95630","CA"
"809  SMOKEY GROVE CT","ROSEVILLE","95661","CA"
"2761  HUNTINGTON RD","SACRAMENTO","95864","CA"
"2833  ROYAL PALM WAY","CARMICHAEL","95608","CA"
"5020  ARTESIA RD","SHINGLE SPRINGS","95682","CA"
"1037  HOUSTON CIR","FOLSOM","95630","CA"
"2873  KING EDWARD DR","EL DORADO HILLS","95762","CA"
"3903  MOSSVIEW PL","EL DORADO HILLS","95762","CA"
"1753  ROSEHALL WAY","SACRAMENTO","95832","CA"
"152  STONINGTON WAY","FOLSOM","95630","CA"
"1029  HOUSTON CIR","FOLSOM","95630","CA"
"137  TOYON DR","AUBURN","95603","CA"
"2873  KING EDWARD DR","EL DORADO HILLS","95762","CA"
"8978  HAFLINGER WAY","ELK GROVE","95757","CA"
"3722  ABBY CT","ROCKLIN","95765","CA"
"6830  SYLVAN MEADOW CT","CITRUS HEIGHTS","95610","CA"
"3428  CLAYTON LN","LOOMIS","95650","CA"
"5572  LACKLAND WAY","SACRAMENTO","95835","CA"
"2963  DIORITE WAY","SACRAMENTO","95835","CA"
"7516  BRABHAM WAY","ELK GROVE","95758","CA"
"5160  CAMANCHE WAY","EL DORADO HILLS","95762","CA"
"10  GLENTRESS CT","SACRAMENTO","95833","CA"
"5424  OBEN FELL CT","ANTELOPE","95843","CA"
"11845  PROSPECT HILL DR","GOLD RIVER","95670","CA"
"170  JARVIS CIR","SACRAMENTO","95834","CA"
"7226  BONITA WAY","CITRUS HEIGHTS","95610","CA"
"2214  HARTER CT","FOLSOM","95630","CA"
"5655  LAGUNA QUAIL WAY","ELK GROVE","95758","CA"
"1717  VENICE DR","SOUTH LAKE TAHOE","96150","CA"
"9650  MCKENNA DR","ELK GROVE","95757","CA"
"26488  BARB WIRE LN","COLFAX","95713","CA"
"5008  MENDOCINO WAY","EL DORADO HILLS","95762","CA"
"8977  ROBBINS RD","SACRAMENTO","95829","CA"
"2314  C ST","SACRAMENTO","95816","CA"
"7021  SHORT OAK WAY","ORANGEVALE","95662","CA"
"1832  CARNEILIAN DR","ROSEVILLE","95747","CA"
"8371  WHEATLAND DR","SACRAMENTO","95828","CA"
"4935  ANDREA BLVD","SACRAMENTO","95842","CA"
"9590  CASTLEBRIDGE CT","ELK GROVE","95758","CA"
"8726  MESA BROOK WAY","ELK GROVE","95624","CA"
"10096  UPSHAW WAY","ELK GROVE","95757","CA"
"8109  GREENOCK WAY","ANTELOPE","95843","CA"
"5349  BRAMBLE WAY","SACRAMENTO","95841","CA"
"10143  OMEARA DR","SACRAMENTO","95829","CA"
"352  SUMMER GROVE CIR","ROSEVILLE","95678","CA"
"8137  GLEN TREE DR","CITRUS HEIGHTS","95610","CA"
"3051  PINNACLE CT","SHINGLE SPRINGS","95682","CA"
"8041  ALTA VISTA LN","CITRUS HEIGHTS","95610","CA"
"980  ARUNDEL WAY","SACRAMENTO","95833","CA"
"47  KELSO CIR","SACRAMENTO","95833","CA"
"4141  37TH AVE","SACRAMENTO","95824","CA"
"8344  WHITE SPRUCE DR","ANTELOPE","95843","CA"
"2017  EDISON AVE","SACRAMENTO","95821","CA"
"8464  CRYSTAL WALK CIR","ELK GROVE","95758","CA"
"5732  HWY    193","GEORGETOWN","95634","CA"
"8312  CHARLOTTE AVE","CITRUS HEIGHTS","95610","CA"
"235  C ST","GALT","95632","CA"
"2390  KENWORTHY WAY","SACRAMENTO","95832","CA"
"4970  TOPAZ AVE","ROCKLIN","95677","CA"
"7252  PLEASANT VIEW DR","CITRUS HEIGHTS","95610","CA"
"6652  GRAHAM CIR","CITRUS HEIGHTS","95610","CA"
"2050  KIRK WAY","SACRAMENTO","95822","CA"
"3684  LOWRY DR","NORTH HIGHLANDS","95660","CA"
"4112  8TH AVE","SACRAMENTO","95817","CA"
"6513  HOLIDAY WAY","NORTH HIGHLANDS","95660","CA"
"2438  CATALINA DR","SACRAMENTO","95864","CA"
"2854  BENDMILL WAY","SACRAMENTO","95833","CA"
"3733  RIPLEY ST","SACRAMENTO","95838","CA"
"5091  RIFFLES LN","POLLOCK PINES","95726","CA"
"6003  VIA CASITAS AVE","CARMICHAEL","95608","CA"
"5704  LARRY AVE","CITRUS HEIGHTS","95610","CA"
"3558  CABALLERO LN","ANTELOPE","95843","CA"
"3604  40TH ST","SACRAMENTO","95817","CA"
"4112  MORIAH WAY","NORTH HIGHLANDS","95660","CA"
"7330  LITTLE OAKS WAY","CITRUS HEIGHTS","95621","CA"
"5454  TARES CIR","ELK GROVE","95757","CA"
"3236  DEL MAR WAY","SACRAMENTO","95815","CA"
"5166  CONNECTICUT DR Unit 1","SACRAMENTO","95841","CA"
"7110  CHANDLER DR","SACRAMENTO","95828","CA"
"13065  LINCOLN WAY Unit 10","AUBURN","95603","CA"
"271  TAHOE WOODS BLVD","TAHOE CITY","96145","CA"
"7115  LOOMIS HILLS RD","LOOMIS","95650","CA"
"9696  CLOS DU LAC CIR","LOOMIS","95650","CA"
"2925  SIENNA LN","SACRAMENTO","95864","CA"
"149  MAMMOTH DR","TAHOE CITY","96145","CA"
"6403  SHINGLE RD","SHINGLE SPRINGS","95682","CA"
"7212  DANBERG WAY","ELK GROVE","95757","CA"
"4020  RIVA RIDGE DR","FAIR OAKS","95628","CA"
"17780  CROTHER HILLS RD","MEADOW VISTA","95722","CA"
"4512  PHEASANT LN","ROCKLIN","95765","CA"
"1801  POTRERO WAY","SACRAMENTO","95822","CA"
"1801  POTRERO WAY","SACRAMENTO","95822","CA"
"1895  SILVER TIP DR","TAHOE CITY","96145","CA"
"8510  NOB HILL LN","GRANITE BAY","95746","CA"
"1167  VILLAGIO DR","EL DORADO HILLS","95762","CA"
"1167  VILLAGIO DR","EL DORADO HILLS","95762","CA"
"1350  PINTAIL WAY","LINCOLN","95648","CA"
"104  MIRAMONT CT","EL DORADO HILLS","95762","CA"
"1252  KONDOS AVE","SACRAMENTO","95814","CA"
"3601  COLONY CT","PLACERVILLE","95667","CA"
"301  FIELDBROOK CT","ROSEVILLE","95747","CA"
"201  PRESCOTT CT","ROSEVILLE","95746","CA"
"2524  BLACK TERN WAY","ELK GROVE","95757","CA"
"1173  KINGFISHER CIR","FOLSOM","95630","CA"
"5000  LAGUNA WOODS DR","ELK GROVE","95758","CA"
"2915  CANTERBURY CIR","EL DORADO HILLS","95762","CA"
"6221  CRYSTAL BLVD","EL DORADO","95623","CA"
"4117  ARENZANO WAY","EL DORADO HILLS","95762","CA"
"2125  MARCHITA WAY","CARMICHAEL","95608","CA"
"581  PLATT CIR","EL DORADO HILLS","95762","CA"
"308  WILLOW GLEN DR","ROSEVILLE","95678","CA"
"4131  TRINIDAD DR","CAMERON PARK","95682","CA"
"9718  OTTER BAY CT","ELK GROVE","95757","CA"
"108  CLYDESDALE WAY","ROSEVILLE","95678","CA"
"6085  WYNNEWOOD WAY","SACRAMENTO","95823","CA"
"8466  CEANOTHUS CT","ELK GROVE","95624","CA"
"5121  KENNETH AVE","CARMICHAEL","95608","CA"
"4313  MAGNIFICA LN","SACRAMENTO","95827","CA"
"108  CLYDESDALE WAY","ROSEVILLE","95678","CA"
"221  BILL BEAN CIR","SACRAMENTO","95835","CA"
"12663  PRINCETON DR","AUBURN","95603","CA"
"640  GARDEN PARK DR","ROSEVILLE","95678","CA"
"525  PEACE WATER CT","ROSEVILLE","95747","CA"
"5040  FIVE SPOT RD","POLLOCK PINES","95726","CA"
"920  STONEMAN WAY","EL DORADO HILLS","95762","CA"
"2714  DANUBE AVE","DAVIS","95616","CA"
"2402  CLEMSON DR","DAVIS","95618","CA"
"1821  CHARM WAY","SACRAMENTO","95835","CA"
"9160  TORINO WAY","SACRAMENTO","95829","CA"
"12055  HOLLY VISTA WAY","AUBURN","95603","CA"
"10001  MOSAIC WAY","ELK GROVE","95757","CA"
"2160  SHADY ARBOR DR","SACRAMENTO","95833","CA"
"5508  SAGEHEN CT","LOOMIS","95650","CA"
"4142  BESTAFA CT","PLACERVILLE","95667","CA"
"9493  BAYPOINT WAY","ELK GROVE","95624","CA"
"3217  FOGGY BANK WAY","SACRAMENTO","95833","CA"
"8550  MCPHETRIDGE DR","ELK GROVE","95624","CA"
"9055  TESTERMAN WAY","ELK GROVE","95758","CA"
"1957  RICHFIELD WAY","SACRAMENTO","95832","CA"
"6348  CERROMAR CIR","ORANGEVALE","95662","CA"
"161  SUTLEY CIR","SACRAMENTO","95835","CA"
"821  BUSSING CT","FOLSOM","95630","CA"
"4671  LARSON WAY","SACRAMENTO","95822","CA"
"2301  STEPPING STONE LN","LINCOLN","95648","CA"
"5721  MOON CREEK WAY","ELK GROVE","95758","CA"
"2506  47TH AVE","SACRAMENTO","95822","CA"
"9260  BALBOA PARK WAY","ELK GROVE","95624","CA"
"4000  DEER TRAIL WAY","SACRAMENTO","95823","CA"
"3610  DAYTON ST","SACRAMENTO","95838","CA"
"316  BAYONNE CT","ROSEVILLE","95747","CA"
"9520  KELLINGWORTH CT","SACRAMENTO","95827","CA"
"5704  GIBBONS DR","CARMICHAEL","95608","CA"
"5705  STANLEY DR","AUBURN","95602","CA"
"2307  UTAH AVE","SOUTH LAKE TAHOE","96150","CA"
"1407  FUHRMAN CT","ROSEVILLE","95747","CA"
"3709  DRIVER WAY","ANTELOPE","95843","CA"
"442  HARTNELL PL","SACRAMENTO","95825","CA"
"3007  61ST ST","SACRAMENTO","95820","CA"
"8711  CORD WAY","SACRAMENTO","95828","CA"
"8533  BLACK KITE DR","ELK GROVE","95624","CA"
"3228  WESTWOOD DR","ROCKLIN","95677","CA"
"3407  EISENHOWER DR","SACRAMENTO","95826","CA"
"8229  HEMINGWAY DR","SACRAMENTO","95828","CA"
"8960  CYPRESS VIEW WAY","ELK GROVE","95758","CA"
"4445  ARMADALE WAY","SACRAMENTO","95823","CA"
"2637  PALO VISTA WAY","RANCHO CORDOVA","95670","CA"
"1246  APACHE AVE","SOUTH LAKE TAHOE","96150","CA"
"1523  ROWENA WAY","SACRAMENTO","95864","CA"
"147  STEPHEN AVE","AUBURN","95603","CA"
"6217  LEOLA WAY","SACRAMENTO","95824","CA"
"2812  BARBARELL WAY","SACRAMENTO","95821","CA"
"7752  19TH ST","SACRAMENTO","95832","CA"
"2811  SETON HILL CT","SACRAMENTO","95826","CA"
"461  HARDING AVE","SACRAMENTO","95833","CA"
"4429  IOWA AVE","SACRAMENTO","95824","CA"
"3472  DAVIDSON DR","ANTELOPE","95843","CA"
"6917  SANDROCK WAY","SACRAMENTO","95828","CA"
"2612  KOKANEE WAY","SACRAMENTO","95826","CA"
"4500  61ST ST","SACRAMENTO","95820","CA"
"648  SHASTA OAKS CIR","ROSEVILLE","95678","CA"
"5442  BEGONIA DR","POLLOCK PINES","95726","CA"
"2640  ELWOOD AVE","SOUTH LAKE TAHOE","96150","CA"
"4451  WINDING WAY","SACRAMENTO","95841","CA"
"8253  GLENDON WAY","SACRAMENTO","95829","CA"
"450  STOCKMAN LN","LINCOLN","95648","CA"
"8405  VILLAVIEW DR","CITRUS HEIGHTS","95621","CA"
"8613  TIOGAWOODS DR","SACRAMENTO","95828","CA"
"501  P ST","LINCOLN","95648","CA"
"7241  MANUEL ST","RIO LINDA","95673","CA"
"2716  PANAY CT","CARMICHAEL","95608","CA"
"6021  16TH AVE","SACRAMENTO","95820","CA"
"7670  GRAMONT WAY","SACRAMENTO","95823","CA"
"2843  MOULTON DR","PLACERVILLE","95667","CA"
"8509  ALEKSANDER CT","SACRAMENTO","95828","CA"
"9725  HAWKINS CT","ELK GROVE","95624","CA"
"7809  VALLECITOS WAY","SACRAMENTO","95828","CA"
"6916  SANDROCK WAY","SACRAMENTO","95828","CA"
"5356  VICHY CIR","ANTELOPE","95843","CA"
"612  E ST","GALT","95632","CA"
"7711  18TH ST","SACRAMENTO","95832","CA"
"10  SPIKE CT","SACRAMENTO","95823","CA"
"3692  PAYNE WAY","NORTH HIGHLANDS","95660","CA"
"6324 L SLIPPERY CREEK LN","CITRUS HEIGHTS","95621","CA"
"7510  PIXCROFT CT","SACRAMENTO","95842","CA"
"2237  FERNLEY AVE","SACRAMENTO","95815","CA"
"5101  SULLY ST","SACRAMENTO","95838","CA"
"1986  BENITA DR Unit 3","RANCHO CORDOVA","95670","CA"
"220  WALES DR","FOLSOM","95630","CA"
"3801  MILTON WAY","NORTH HIGHLANDS","95660","CA"
"1306  HELENA AVE","SACRAMENTO","95815","CA"
"3059  CALLECITA ST","SACRAMENTO","95815","CA"
"8529  CENTER PKWY","SACRAMENTO","95823","CA"
"3546  6TH AVE","SACRAMENTO","95817","CA"
"3813  MCCLELLAN DR","NORTH HIGHLANDS","95660","CA"
"3821  ALDER ST","SACRAMENTO","95838","CA"
"535  ELEANOR AVE","SACRAMENTO","95815","CA"
"5075  LAGUNA DR","SACRAMENTO","95823","CA"
"4042  8TH AVE","SACRAMENTO","95817","CA"
"7516  TAMOSHANTER WAY","SACRAMENTO","95822","CA"
"6030  40TH AVE","SACRAMENTO","95824","CA"
"10901  COLOMA RD Unit 3","RANCHO CORDOVA","95670","CA"
"894 E WOODSIDE LN Unit 1","SACRAMENTO","95825","CA"
"5178  CONNECTICUT DR Unit 3","SACRAMENTO","95841","CA"
"3720  PINELL ST","SACRAMENTO","95838","CA"
"5459  PRIMROSE DR","CITRUS HEIGHTS","95610","CA"
"863  DRUM POWERHOUSE RD","ALTA","95701","CA"
"923  FULTON AVE","SACRAMENTO","95825","CA"
"2644  WILLIAM AVE","SOUTH LAKE TAHOE","96150","CA"
"7601  LOUCRETA DR","SACRAMENTO","95828","CA"
"4343  SHINING STAR DR Unit 2","SACRAMENTO","95823","CA"
"8756  MAPLE HOLLOW CT","GRANITE BAY","95746","CA"
"12701  RIMFIRE DR","WILTON","95693","CA"
"8235  OAK KNOLL DR","GRANITE BAY","95746","CA"
"6502  EATON CT","GRANITE BAY","95746","CA"
"2234  SEBASTIAN WAY","ROSEVILLE","95661","CA"
"11040  SUNRISE RIDGE CIR","AUBURN","95603","CA"
"6227  CAZADOR","RANCHO MURIETA","95683","CA"
"1433  EASY LN","EL DORADO HILLS","95762","CA"
"3467  SHERWOOD CT","LOOMIS","95650","CA"
"689  LARSON WAY","FOLSOM","95630","CA"
"2463  SUMMER DR","EL DORADO HILLS","95762","CA"
"10848  BIANCO WAY","RANCHO CORDOVA","95670","CA"
"6473  CORMORANT CIR","ROCKLIN","95765","CA"
"12025  PROSPECT HILL DR","GOLD RIVER","95670","CA"
"12025  PROSPECT HILL DR","GOLD RIVER","95670","CA"
"104  KENNAR WAY","FOLSOM","95630","CA"
"4205  ZEPHYR WAY","SACRAMENTO","95821","CA"
"529  FISHER CIR","FOLSOM","95630","CA"
"5565  CAVITT STALLMAN RD","GRANITE BAY","95746","CA"
"9553  WADENA WAY","ELK GROVE","95758","CA"
"1609  TRUSCOTT CT","ROSEVILLE","95661","CA"
"1804  HIAWATHA DR","ROSEVILLE","95747","CA"
"5100  ADELINA WAY","CARMICHAEL","95608","CA"
"839  COMMONS DR","SACRAMENTO","95825","CA"
"6316  WOODCREEK DR","CITRUS HEIGHTS","95621","CA"
"6308  MALLARD CT","ROCKLIN","95765","CA"
"7616  MILLPORT DR","ROSEVILLE","95678","CA"
"8174  FINMERE WAY","SACRAMENTO","95829","CA"
"409  DUNBARTON CIR","SACRAMENTO","95825","CA"
"9744  SUMMER GLEN WAY","ELK GROVE","95757","CA"
"5406  CASA GRANDE AVE","ROCKLIN","95677","CA"
"2613  AMERICAN AVE","SACRAMENTO","95833","CA"
"2240  QUARRY WAY","ROCKLIN","95765","CA"
"41  ROLLINGBROOK CIR","SACRAMENTO","95833","CA"
"2254  MYRICK RD","SOMERSET","95684","CA"
"10049  PRAIRIE DUNES WAY","SACRAMENTO","95829","CA"
"1520  WIMBLEDON DR","AUBURN","95603","CA"
"7536  WYNNDEL WAY","ELK GROVE","95758","CA"
"3337  PARKSIDE DR","ROCKLIN","95677","CA"
"4537  BELA WAY","CARMICHAEL","95608","CA"
"612  MOREY AVE","SACRAMENTO","95838","CA"
"1386  KATIE LN","PLACERVILLE","95667","CA"
"9458  MARIUS WAY","SACRAMENTO","95829","CA"
"9362  MARLEMONT CIR","ELK GROVE","95758","CA"
"5354  DONLYN PL","ANTELOPE","95843","CA"
"5752  TERRACE DR","ROCKLIN","95765","CA"
"6625  WOODENFIELD CT","SACRAMENTO","95841","CA"
"7935  TIERRA WOOD WAY","SACRAMENTO","95828","CA"
"2826  JIM VALLEY RD","PLACERVILLE","95667","CA"
"307  BREWSTER AVE","SACRAMENTO","95831","CA"
"180  ELECTRIC ST","AUBURN","95603","CA"
"5987  LAIRD RD","LOOMIS","95650","CA"
"1103  COLOMA WAY","ROSEVILLE","95661","CA"
"7800  NEAL ST","FAIR OAKS","95628","CA"
"5667  VISTA AVE","SACRAMENTO","95824","CA"
"7954  BUCKS HARBOR WAY","SACRAMENTO","95828","CA"
"7155  BELL RIVER WAY","SACRAMENTO","95831","CA"
"7700  SHEEPHERDER RIDGE RD","KELSEY","95667","CA"
"7279  RUSH RIVER DR","SACRAMENTO","95831","CA"
"7763  DERSINGHAM DR","SACRAMENTO","95829","CA"
"3516  SUN KNOLL DR","LOOMIS","95650","CA"
"2743  42ND ST","SACRAMENTO","95817","CA"
"12  NAPLES CT","SACRAMENTO","95831","CA"
"8972  CARLISLE AVE","SACRAMENTO","95829","CA"
"4926  EL CID DR","ROCKLIN","95677","CA"
"7645  SWEETBRIER WAY","SACRAMENTO","95832","CA"
"3708  DIDCOT CIR","SACRAMENTO","95838","CA"
"5978  MARLIN CIR","CARMICHAEL","95608","CA"
"4618  GOYA PKWY","SACRAMENTO","95823","CA"
"8312  MADISON AVE","FAIR OAKS","95628","CA"
"8629  BREANNA CT","SACRAMENTO","95828","CA"
"5137  DRY CREEK RD","SACRAMENTO","95838","CA"
"3355  WESTERN AVE","SACRAMENTO","95838","CA"
"2817  LOYAL LN","POLLOCK PINES","95726","CA"
"11150  TRINITY RIVER DR Unit 60","RANCHO CORDOVA","95670","CA"
"8036  DUSENBERG CT","SACRAMENTO","95828","CA"
"7330  STRATFORD PL Unit 707","SACRAMENTO","95842","CA"
"7573  SKELTON WAY","SACRAMENTO","95822","CA"
"5170  GOLDEN ASPEN DR","GRIZZLY FLATS","95636","CA"
"2952  CALLE DEL SOL WAY","RANCHO CORDOVA","95670","CA"
"4800  WESTLAKE PKWY Unit 1910","SACRAMENTO","95835","CA"
"1066  STATE HIGHWAY 49","PLACERVILLE","95667","CA"
"3968  DEERBROOK DR","SACRAMENTO","95823","CA"
"7722  MILLDALE CIR","ELVERTA","95626","CA"
"3901  WESTPORTER DR","SACRAMENTO","95826","CA"
"7795  LARAMORE WAY","SACRAMENTO","95832","CA"
"5317  MARTIN LUTHER KING JR BLVD","SACRAMENTO","95820","CA"
"501  ROUNDTREE CT","SACRAMENTO","95831","CA"
"7  DEROW CT","SACRAMENTO","95833","CA"
"1040  ARCADE BLVD","SACRAMENTO","95815","CA"
"2949  WESTON WAY","RANCHO CORDOVA","95670","CA"
"9075  MONTOYA ST Unit 3","SACRAMENTO","95826","CA"
"3541  33RD ST","SACRAMENTO","95817","CA"
"6269  LONGFORD DR","CITRUS HEIGHTS","95621","CA"
"4521  PALM AVE Unit 2","SACRAMENTO","95842","CA"
"4408  11TH AVE","SACRAMENTO","95820","CA"
"305  WISCONSIN AVE","SACRAMENTO","95833","CA"
"3175  GLENWOOD CT","MEADOW VISTA","95722","CA"
"751  LAUREL DR","SACRAMENTO","95864","CA"
"7935  SHELBORNE DR","GRANITE BAY","95746","CA"
"9213  VISTA RAVINE CT","LOOMIS","95650","CA"
"1955  MARCONI WAY","SOUTH LAKE TAHOE","96150","CA"
"9675  FLORIN RD","SACRAMENTO","95829","CA"
"14450  HAYCOCK ST","SLOUGHHOUSE","95683","CA"
"4555  MULETAIL","CARNELIAN BAY","96140","CA"
"10273  SADDLE CREEK DR","SACRAMENTO","95829","CA"
"425  OLIVE ORCHARD DR","AUBURN","95603","CA"
"5850  LONE STAR OAKS CT","AUBURN","95602","CA"
"725  CHESTERFIELD WAY","ROCKLIN","95765","CA"
"716  CHESTERFIELD WAY","ROCKLIN","95765","CA"
"9634  HALLI WAY","ELK GROVE","95624","CA"
"8720  POTTS CT","ORANGEVALE","95662","CA"
"5301  JILSON WAY","ELK GROVE","95757","CA"
"1129  BOXELDER CIR","FOLSOM","95630","CA"
"3490  SMOKEY MOUNTAIN CIR","EL DORADO HILLS","95762","CA"
"1234  COMMONS DR","SACRAMENTO","95825","CA"
"5213  SPANISH DRY DIGGINS RD","GREENWOOD","95635","CA"
"1241  Q ST","SACRAMENTO","95814","CA"
"1202  REED DR","DAVIS","95616","CA"
"501  WOBURN CT","GRANITE BAY","95746","CA"
"641  ALISO VIEJO CT","ROSEVILLE","95747","CA"
"2264  HERITAGE DR","ROSEVILLE","95678","CA"
"5739  STATE AVE","SACRAMENTO","95819","CA"
"516  HEATHER FALLS CT","ROSEVILLE","95678","CA"
"3074  SOUTHCREEK DR","LINCOLN","95648","CA"
"2051  BEAR ROCK RD","PLACERVILLE","95667","CA"
"9642  CEDAR POND PL","ELK GROVE","95757","CA"
"4731  DEL RIO RD","SACRAMENTO","95822","CA"
"506  WOOL ST","FOLSOM","95630","CA"
"5000  EL DON DR","ROCKLIN","95677","CA"
"2320  JUNE MOUNTAIN CT","ROCKLIN","95765","CA"
"1284  PROSPECTOR TRL","SOUTH LAKE TAHOE","96150","CA"
"400  HANSEN CIR","FOLSOM","95630","CA"
"394  CAMELIA RIVER WAY","SACRAMENTO","95831","CA"
"9936  FIRSTONE DR","SACRAMENTO","95829","CA"
"3556  43RD ST","SACRAMENTO","95817","CA"
"2737  BEDFORD AVE","PLACERVILLE","95667","CA"
"3261  SUNSET TER","AUBURN","95602","CA"
"8845  WINDING WAY","FAIR OAKS","95628","CA"
"804  BUSSING CT","FOLSOM","95630","CA"
"5340  BUCKWOOD WAY","SACRAMENTO","95835","CA"
"5442  BOSWELL WAY","SACRAMENTO","95835","CA"
"2823  CATALINA DR","ROCKLIN","95765","CA"
"1026  KENSINGTON DR","ROSEVILLE","95661","CA"
"513  HYDRANGEA CT","ROSEVILLE","95747","CA"
"2922  DENISE CT","WEST SACRAMENTO","95691","CA"
"10149  GATEMONT CIR","ELK GROVE","95624","CA"
"4753  RUSTIC RD","FAIR OAKS","95628","CA"
"2609  PINTER AVE","SOUTH LAKE TAHOE","96150","CA"
"6169  KOKANEE LN","POLLOCK PINES","95726","CA"
"151  GLENN DR","FOLSOM","95630","CA"
"1421  TALLAC LN","LINCOLN","95648","CA"
"4122  MARSEILLE CT","ELK GROVE","95758","CA"
"260  GROTH CIR","SACRAMENTO","95834","CA"
"8990  TWIN FALLS DR","SACRAMENTO","95826","CA"
"897  BRIERGLEN WAY","SACRAMENTO","95834","CA"
"1331  SIERRA OAK LN","COLFAX","95713","CA"
"8552  ZINNIA WAY","ELK GROVE","95624","CA"
"359  DRAGONFLY CIR","SACRAMENTO","95834","CA"
"11  FIG LEAF CT","SACRAMENTO","95838","CA"
"8395  SUMMER SKY DR","SACRAMENTO","95828","CA"
"5448  10TH AVE","SACRAMENTO","95820","CA"
"6180  KOKANEE LN","POLLOCK PINES","95726","CA"
"5385  YVETTE WAY","SACRAMENTO","95823","CA"
"2390  EDGEWATER RD","SACRAMENTO","95815","CA"
"8545  YELLOWTAIL WAY","ANTELOPE","95843","CA"
"8021  VANDENBERG DR","SACRAMENTO","95820","CA"
"5408  ENGLE RD","CARMICHAEL","95608","CA"
"2481  ROLAND RD","SACRAMENTO","95821","CA"
"1953  WRIGHT ST","SACRAMENTO","95825","CA"
"5520  WOODFOREST DR","SACRAMENTO","95842","CA"
"1939  IRIS AVE","SACRAMENTO","95815","CA"
"6417  CREEKBED LN","CITRUS HEIGHTS","95621","CA"
"4056  STEPHEN DR","NORTH HIGHLANDS","95660","CA"
"1675  VERNON ST Unit 28","ROSEVILLE","95678","CA"
"6528  JUNEAU WAY","NORTH HIGHLANDS","95660","CA"
"8310  JURGENS LN","CITRUS HEIGHTS","95610","CA"
"5852  ELMO DR","NORTH HIGHLANDS","95660","CA"
"7824  BELLINGRATH DR","ELVERTA","95626","CA"
"208  ARROWROCK RD","SACRAMENTO","95838","CA"
"3029  ESTEPA DR Unit E","CAMERON PARK","95682","CA"
"6273  LONGFORD DR","CITRUS HEIGHTS","95621","CA"
"4480  SAN SEBASTIAN WAY","SACRAMENTO","95823","CA"
"11510  GARNET WAY","AUBURN","95602","CA"
"232  BLAGDON CT","ROSEVILLE","95747","CA"
"5536  FRUITRIDGE RD","SACRAMENTO","95820","CA"
"250  SHARP CIR Unit 2","ROSEVILLE","95678","CA"
"4433  REDSTONE CT","GRANITE BAY","95746","CA"
"5150  STIRLING ST","GRANITE BAY","95746","CA"
"840  SAN RAMON WAY","SACRAMENTO","95864","CA"
"408  BASLOW CT","ROSEVILLE","95661","CA"
"1893  YERBA WAY","LINCOLN","95648","CA"
"10770  LEGO LN","GALT","95632","CA"
"3300  LAMBERTIANA LN","GEORGETOWN","95634","CA"
"7205  WELLS AVE","LOOMIS","95650","CA"
"225  SNOW WHISPER CT","ROSEVILLE","95747","CA"
"960  CICERI DR","PLACERVILLE","95667","CA"
"618  RUSCELLO CT","EL DORADO HILLS","95762","CA"
"181  OAK VIEW RD","NEWCASTLE","95658","CA"
"2500  MARINA POINT LN","ELK GROVE","95758","CA"
"5536  SHOOTING STAR RD","POLLOCK PINES","95726","CA"
"4590  MEADOW CREEK RD","PLACERVILLE","95667","CA"
"823  MORNINGSIDE DR","FOLSOM","95630","CA"
"232  MCRAE CT","ROSEVILLE","95678","CA"
"525  CASTILLIAN CT","ROSEVILLE","95747","CA"
"4551  MONET WAY","GRANITE BAY","95746","CA"
"11936  PERICLES DR","RANCHO CORDOVA","95742","CA"
"9424  TRIATHLON LN","ELK GROVE","95758","CA"
"2666  BROWN BEAR TRL","COOL","95614","CA"
"11229  GREENSTONE PL","GOLD RIVER","95670","CA"
"2918  TILBURY WAY","ROSEVILLE","95661","CA"
"3801  KIMBERLY RD","CAMERON PARK","95682","CA"
"1284  FRESWICK DR","FOLSOM","95630","CA"
"2820  BLACK HAWK LN","LINCOLN","95648","CA"
"8365  LOLLIPOP LN","ELK GROVE","95624","CA"
"230  GREG THATCH CIR","SACRAMENTO","95835","CA"
"4813  COPPOLA CIR","ELK GROVE","95757","CA"
"7818  MANORSIDE DR","SACRAMENTO","95832","CA"
"4534  JUNO WAY","SACRAMENTO","95864","CA"
"2236  MURATURA WAY","EL DORADO HILLS","95762","CA"
"5410  TARKENTON CT","ELK GROVE","95757","CA"
"10309  VILA REAL WAY","ELK GROVE","95757","CA"
"2226  RAILWAY CIR","GOLD RIVER","95670","CA"
"9527  SEA CLIFF WAY","ELK GROVE","95758","CA"
"3111  CLARKSON DR","ROCKLIN","95765","CA"
"10007  BRENTWOOD CIR","AUBURN","95603","CA"
"11572  MARISSA WAY","GOLD RIVER","95670","CA"
"12027  ERATO CIR","RANCHO CORDOVA","95742","CA"
"6029  KIFISIA WAY","FAIR OAKS","95628","CA"
"4008  HUNTER OAKS LN","LOOMIS","95650","CA"
"2450  FOUNTAIN HILL LOOP","LINCOLN","95648","CA"
"8366  ALEXIA CT","ELK GROVE","95624","CA"
"4921  LOTUS POND WAY","ELK GROVE","95757","CA"
"4021  AVELLANO DR","EL DORADO HILLS","95762","CA"
"9421  CLEMENTINE WAY","ELK GROVE","95758","CA"
"9829  SUMMER GLEN WAY","ELK GROVE","95757","CA"
"2991  FLORA SPRINGS WAY","SACRAMENTO","95834","CA"
"3562  C ST","SACRAMENTO","95816","CA"
"1383  SWEET JULIET LN","LINCOLN","95648","CA"
"1115  PARAGON LN","LINCOLN","95648","CA"
"6000  TRAVO WAY","ELK GROVE","95757","CA"
"2281  PEBBLESTONE LN","LINCOLN","95648","CA"
"2330  E ST","SACRAMENTO","95816","CA"
"8817  AMBERJACK WAY","SACRAMENTO","95828","CA"
"8817  AMBERJACK WAY","SACRAMENTO","95828","CA"
"332  ASPEN CT","ROSEVILLE","95678","CA"
"8557  SPRING AZURE WAY","ELK GROVE","95624","CA"
"993  MANTON CT","GALT","95632","CA"
"6905  MERCEDES AVE","CITRUS HEIGHTS","95621","CA"
"4749  FOSTER WAY","CARMICHAEL","95608","CA"
"6308  SEASTONE WAY","SACRAMENTO","95831","CA"
"907  FITZROY CT","ROSEVILLE","95747","CA"
"2065  MILAN WAY","ROSEVILLE","95678","CA"
"5720  RIVER BIRCH PL","ANTELOPE","95843","CA"
"7009  CHAROLAIS WAY","CITRUS HEIGHTS","95610","CA"
"8209  TERRALAND CT","CITRUS HEIGHTS","95610","CA"
"2  INGRAM CT","SACRAMENTO","95823","CA"
"4121  SAINT RAPHAEL CT","ELK GROVE","95758","CA"
"15040  LAGO DR","RANCHO MURIETA","95683","CA"
"5501  REXLEIGH CT","SACRAMENTO","95823","CA"
"3400  33RD ST","SACRAMENTO","95817","CA"
"8486  TRIMMER WAY","SACRAMENTO","95828","CA"
"5001  HOLYOKE WAY","SACRAMENTO","95841","CA"
"1300  ELM ST","ROSEVILLE","95678","CA"
"1348  POWDERHORN WAY","SACRAMENTO","95834","CA"
"102  RAWLINGS CT","FOLSOM","95630","CA"
"3135  ACTON WAY","ROSEVILLE","95747","CA"
"3332  HOGARTH DR","SACRAMENTO","95827","CA"
"4740  GREENHOLME DR Unit 1","SACRAMENTO","95842","CA"
"2452  JULLIARD CIR","ROSEVILLE","95661","CA"
"7034  PALM AVE","FAIR OAKS","95628","CA"
"6900  SANDY SOUZA WAY","ELK GROVE","95758","CA"
"1885  GRAEAGLE LN","LINCOLN","95648","CA"
"9146  COLONSAY WAY","SACRAMENTO","95829","CA"
"7326  GRANDBALL WAY","CITRUS HEIGHTS","95621","CA"
"5320  57TH ST","SACRAMENTO","95820","CA"
"71  TRENT CT","GALT","95632","CA"
"5217  MEADOWLAND WAY","ELK GROVE","95758","CA"
"781  SAO JORGE WAY","SACRAMENTO","95831","CA"
"141  MONTICELLO AVE","RIO LINDA","95673","CA"
"7526  29TH ST","SACRAMENTO","95822","CA"
"2221  CAPE CORAL CT","ELVERTA","95626","CA"
"7024  RATHMORE CT","ELK GROVE","95758","CA"
"9000  ALDERSON AVE","SACRAMENTO","95826","CA"
"7671  ROTHERTON WAY","SACRAMENTO","95823","CA"
"5600  NORWAY DR","ORANGEVALE","95662","CA"
"9439  SOARING OAKS DR","ELK GROVE","95758","CA"
"2313  PARK ESTATES DR","SACRAMENTO","95825","CA"
"8176  ROTHBURY WAY","SACRAMENTO","95829","CA"
"8709  BARRACUDA WAY","SACRAMENTO","95826","CA"
"2560  WRIGHT ST","SACRAMENTO","95821","CA"
"6153  JACK LONDON CIR","SACRAMENTO","95842","CA"
"8246  APPLE COVE CT","SACRAMENTO","95828","CA"
"3205  CASITAS BONITO","SACRAMENTO","95825","CA"
"4219  38TH ST","SACRAMENTO","95820","CA"
"104  VALENCIA AVE","ROSEVILLE","95678","CA"
"2508  MORETTI WAY","SACRAMENTO","95821","CA"
"4035  PEARL RD","POLLOCK PINES","95726","CA"
"8366  CHEVALIER WAY","SACRAMENTO","95828","CA"
"2147  FERRAN AVE","SACRAMENTO","95832","CA"
"7769  REENEL WAY","SACRAMENTO","95832","CA"
"5414  PARKVILLE CT","SACRAMENTO","95842","CA"
"1457  HOLLINGSWORTH DR","LINCOLN","95648","CA"
"4776  RAVENSTONE WAY","SACRAMENTO","95842","CA"
"6913  5TH PKWY","SACRAMENTO","95823","CA"
"3741  CENTINELLA DR","NORTH HIGHLANDS","95660","CA"
"5618  VICTORIA LN","CITRUS HEIGHTS","95610","CA"
"3747  EDISON AVE","SACRAMENTO","95821","CA"
"8253  SCENIC HILLS WAY","SACRAMENTO","95828","CA"
"9396  RIVER OAKS LN","ORANGEVALE","95662","CA"
"2509  WHITNEY BLVD","ROCKLIN","95677","CA"
"4501  ORINDA WAY","SACRAMENTO","95820","CA"
"6561  MISTY CREEK DR","CITRUS HEIGHTS","95621","CA"
"3328  BRANCH ST","SACRAMENTO","95838","CA"
"9685  GAGE ST","ELK GROVE","95624","CA"
"1454  LONDON ST","SACRAMENTO","95822","CA"
"1478  65TH AVE","SACRAMENTO","95822","CA"
"4301  35TH ST","SACRAMENTO","95820","CA"
"4246  OBERON AVE","NORTH HIGHLANDS","95660","CA"
"8152  CRYSTAL WALK CIR","ELK GROVE","95758","CA"
"103  ROUNDTREE CT","SACRAMENTO","95831","CA"
"5121  CHERBOURG DR","SACRAMENTO","95842","CA"
"7755  LEAVERITE WAY","SACRAMENTO","95828","CA"
"429  PATIO AVE","SACRAMENTO","95834","CA"
"1017  HARRIS AVE","SACRAMENTO","95838","CA"
"3968  12TH AVE","SACRAMENTO","95817","CA"
"437  CRYSTAL WAY","GALT","95632","CA"
"690  PLAZA AVE","SACRAMENTO","95815","CA"
"6212  PROVIDENCE WAY","NORTH HIGHLANDS","95660","CA"
"69  BRENTFORD CIR","SACRAMENTO","95823","CA"
"7803  WREN LN","CITRUS HEIGHTS","95610","CA"
"1634  DEL DAYO DR","CARMICHAEL","95608","CA"
"493  CROCKER RD","SACRAMENTO","95864","CA"
"6070  QUAIL CREEK LN","TAHOMA","96142","CA"
"1891  11TH AVE","SACRAMENTO","95818","CA"
"1745  STONE CANYON DR","ROSEVILLE","95661","CA"
"6831  FALLSBROOK CT","GRANITE BAY","95746","CA"
"4530  ASHTON DR","SACRAMENTO","95864","CA"
"3400  L ST","SACRAMENTO","95816","CA"
"3091  BLACK OAK DR","ROCKLIN","95765","CA"
"2240  PORTMARNOCK CIR","ROSEVILLE","95678","CA"
"1835  SUNNINGDALE DR","ROSEVILLE","95747","CA"
"1835  SUNNINGDALE DR","ROSEVILLE","95747","CA"
"3561  DEBINA WAY","RANCHO CORDOVA","95670","CA"
"105  OAK CANYON WAY","FOLSOM","95630","CA"
"1928  TYNDRUM LN","FOLSOM","95630","CA"
"531  LONGMEADOW LN","LINCOLN","95648","CA"
"6517  OSCAR CIR","ELK GROVE","95757","CA"
"212  MIKE GARTRELL CIR","SACRAMENTO","95835","CA"
"4181  SNOWS RD","PLACERVILLE","95667","CA"
"4933  VILLAGE GREEN DR","EL DORADO HILLS","95762","CA"
"1417  ALDER CREEK CT","LINCOLN","95648","CA"
"2681  LAND PARK DR","SACRAMENTO","95818","CA"
"58  36TH WAY","SACRAMENTO","95819","CA"
"10856  BIANCO WAY","RANCHO CORDOVA","95670","CA"
"7725  BRIARBERRY WAY","EL DORADO HILLS","95762","CA"
"3108  CLAIRIDGE WAY","SACRAMENTO","95821","CA"
"417  PLEASANT ST","ROSEVILLE","95678","CA"
"8300  WOODBOROUGH WAY","FAIR OAKS","95628","CA"
"2195  PALOMINO CT","FOLSOM","95630","CA"
"2811  AQUINO DR","SACRAMENTO","95833","CA"
"2400  E ST","SACRAMENTO","95816","CA"
"241  RUNNING WOLF CT","ROSEVILLE","95747","CA"
"10244  SHOECH WAY","ELK GROVE","95757","CA"
"12616  PRINCETON DR","AUBURN","95603","CA"
"10309  CHAVES CT","ELK GROVE","95757","CA"
"620  FISHER CIR","FOLSOM","95630","CA"
"4970  HELEN WAY","SACRAMENTO","95822","CA"
"2197  BUTTERFIELD LN","LINCOLN","95648","CA"
"1636  CAISLEAN WAY","FOLSOM","95630","CA"
"2559  SAN MARIN LN","SACRAMENTO","95835","CA"
"2306  COPPERVALE DR","ROCKLIN","95765","CA"
"7193  ARTISAN CIR","ROSEVILLE","95678","CA"
"2016  SAN ESTEBAN CIR","ROSEVILLE","95747","CA"
"1908  PRAIRIE VIEW LN","LINCOLN","95648","CA"
"5512  GROUSE CT","LOOMIS","95650","CA"
"352  CEDAR RIVER WAY","SACRAMENTO","95831","CA"
"9616  HERON POINT CT","ELK GROVE","95624","CA"
"871  55TH ST","SACRAMENTO","95819","CA"
"2615  LA CRESCENTA DR","RESCUE","95672","CA"
"9447  SYRAH CT","ELK GROVE","95624","CA"
"690  SOTANO DR","SACRAMENTO","95833","CA"
"101  CANDLEWOOD CT","LINCOLN","95648","CA"
"5741  BUCKS BAR RD","PLACERVILLE","95667","CA"
"13204  PEBBLE CT","AUBURN","95603","CA"
"4488  65TH ST","SACRAMENTO","95820","CA"
"7621  HENDON WAY","ELK GROVE","95758","CA"
"1123  COMMONS DR","SACRAMENTO","95825","CA"
"2  VISTAWOOD CT","SACRAMENTO","95831","CA"
"4000  DEER TRAIL WAY","SACRAMENTO","95823","CA"
"1535  AMERICAN RIVER TRL","COOL","95614","CA"
"2012  PERIDOT ST","ROSEVILLE","95678","CA"
"8192  DRAIS WAY","ELK GROVE","95624","CA"
"9436  WINDRIFT LN","ELK GROVE","95758","CA"
"9375  HAMBLEY CIR","ELK GROVE","95624","CA"
"2964  PLATTE WAY","SACRAMENTO","95835","CA"
"8801  FREED CT","SACRAMENTO","95828","CA"
"2620  WALNUT AVE","CARMICHAEL","95608","CA"
"5463  GRACEN WAY","SACRAMENTO","95835","CA"
"825  NAHANE DR","SOUTH LAKE TAHOE","96150","CA"
"2701  TIOGA WAY","SACRAMENTO","95821","CA"
"3720  GARNET RD","POLLOCK PINES","95726","CA"
"5624  KIVA DR","SACRAMENTO","95841","CA"
"3968  GARNET RD","POLLOCK PINES","95726","CA"
"5721  DEEPDALE WAY","ELK GROVE","95758","CA"
"411  LANDIS CIR","AUBURN","95603","CA"
"3975  DEER CROSS WAY","SACRAMENTO","95823","CA"
"560  FAIRGROUNDS DR","SACRAMENTO","95817","CA"
"8516  CORD WAY","SACRAMENTO","95828","CA"
"154  BIG VALLEY RD","FOLSOM","95630","CA"
"2111  STEPPING STONE LN","LINCOLN","95648","CA"
"8198  GRANDSTAFF DR","SACRAMENTO","95823","CA"
"3297  BALADA WAY","RANCHO CORDOVA","95670","CA"
"7969  LARWIN DR","CITRUS HEIGHTS","95610","CA"
"9409  HOLFORD WAY","SACRAMENTO","95829","CA"
"750  SHASTA OAKS CT","ROSEVILLE","95678","CA"
"4937  JUNIPER HILL PL","ANTELOPE","95843","CA"
"8444  OLD RANCH RD","ORANGEVALE","95662","CA"
"9139  PERSHING AVE","ORANGEVALE","95662","CA"
"480  THRELKEL ST","NEWCASTLE","95658","CA"
"4035  OAK ST","ROCKLIN","95677","CA"
"8614  HACKMORE CT","ANTELOPE","95843","CA"
"4071  LOUGANIS WAY","SACRAMENTO","95823","CA"
"2181  ROYAL OAKS DR","SACRAMENTO","95815","CA"
"4716  KENNETH AVE","CARMICHAEL","95608","CA"
"3437  CORBIN WAY","SACRAMENTO","95827","CA"
"1531  HESKET WAY","SACRAMENTO","95825","CA"
"501  GIBSON DR Unit 623","ROSEVILLE","95678","CA"
"6608  OAK LAKES LN","CITRUS HEIGHTS","95621","CA"
"72  TILLMAN CIR","SACRAMENTO","95823","CA"
"6758  SANDYLEE WAY","SACRAMENTO","95828","CA"
"270  HARTNELL PL","SACRAMENTO","95825","CA"
"9489  COUNTRY ROADS DR","SACRAMENTO","95827","CA"
"2400  CARLSBAD AVE","SACRAMENTO","95821","CA"
"3770  SHINING STAR DR","SACRAMENTO","95823","CA"
"2621  59TH ST","SACRAMENTO","95817","CA"
"7808  SAYBROOK DR","CITRUS HEIGHTS","95621","CA"
"7910  BETTY LOU DR","SACRAMENTO","95828","CA"
"8539  CAVENDISH WAY","SACRAMENTO","95828","CA"
"209  CINDY LN","GALT","95632","CA"
"6620  TOPAZ DR","POLLOCK PINES","95726","CA"
"3620  SAND RIDGE RD","PLACERVILLE","95667","CA"
"7813  GADSBY CT","ELK GROVE","95758","CA"
"4516  48TH ST","SACRAMENTO","95820","CA"
"6084  HAVEN DR","NORTH HIGHLANDS","95660","CA"
"4929  PONY EXPRESS TRL","CAMINO","95709","CA"
"2508  BRENTLEY DR","SACRAMENTO","95822","CA"
"2231  51ST AVE","SACRAMENTO","95822","CA"
"7611  LINDALE DR","SACRAMENTO","95828","CA"
"3616  40TH ST","SACRAMENTO","95817","CA"
"3232  DEL MAR WAY","SACRAMENTO","95815","CA"
"4941  79TH ST","SACRAMENTO","95820","CA"
"809  BELL AVE","SACRAMENTO","95838","CA"
"10867  WALNUTWOOD WAY","RANCHO CORDOVA","95670","CA"
"4440  SILVERTON WAY","SACRAMENTO","95838","CA"
"5210  PLANET PKWY","SACRAMENTO","95823","CA"
"4516  MYRTLE AVE","SACRAMENTO","95841","CA"
"6400  FRIDAY CIR","NORTH HIGHLANDS","95660","CA"
"167  VALLEY OAK DR","ROSEVILLE","95678","CA"
"5710  71ST ST","SACRAMENTO","95824","CA"
"604  HORIZON CV","ROCKLIN","95677","CA"
"609  JESSIE AVE","SACRAMENTO","95838","CA"
"6076  GEORGIA DR","NORTH HIGHLANDS","95660","CA"
"701  KESNER AVE","SACRAMENTO","95838","CA"
"3073  37TH ST","SACRAMENTO","95817","CA"
"501  GIBSON DR Unit 2612","ROSEVILLE","95678","CA"
"5828  CANARY DR","NORTH HIGHLANDS","95660","CA"
"2601  CLAY ST","SACRAMENTO","95815","CA"
"5410  18TH AVE","SACRAMENTO","95820","CA"
"159  QUASAR CIR","SACRAMENTO","95822","CA"
"6443  DONEGAL DR","CITRUS HEIGHTS","95621","CA"
"3843  ALMOND GROVE CT","ANTELOPE","95843","CA"
"7216  WILLOWRIVER CT","SACRAMENTO","95828","CA"
"1548  71ST AVE","SACRAMENTO","95832","CA"
"5920  LAKE BLVD","CARNELIAN BAY","96140","CA"
"2240  WHITE SANDS DR","SOUTH LAKE TAHOE","96150","CA"
"8440  BERG ST","GRANITE BAY","95746","CA"
"750  CORTLANDT DR","SACRAMENTO","95864","CA"
"5153  BISSETT WAY","SACRAMENTO","95835","CA"
"2209  CATALINA DR","SOUTH LAKE TAHOE","96150","CA"
"117  WOLF RIVER CT","ROSEVILLE","95661","CA"
"3701  BLACK OAK DR","ROCKLIN","95765","CA"
"3533  PARK DR","EL DORADO HILLS","95762","CA"
"4941  SUSAN HOLLOW CT","FAIR OAKS","95628","CA"
"2928  HIGHLAND AVE","SACRAMENTO","95818","CA"
"1540  ELK RAVINE WAY","ROSEVILLE","95661","CA"
"1944  LADERA DR","LINCOLN","95648","CA"
"1706  P ST","SACRAMENTO","95814","CA"
"1950  SAND RIDGE RD","EL DORADO","95623","CA"
"947  SOUTHBRIDGE CIR","LINCOLN","95648","CA"
"8920  BELFORD CT","ROSEVILLE","95747","CA"
"9999  INDIAN HILL RD","NEWCASTLE","95658","CA"
"4508  STEBBING CT","ROCKLIN","95677","CA"
"1850  VILLAGE Unit 413","OLYMPIC VALLEY","96146","CA"
"4327  RIO TINTO AVE","SACRAMENTO","95821","CA"
"7098  SINCLAIR DR","CAMERON PARK","95682","CA"
"14  VISTA ALEGRE CT","SACRAMENTO","95831","CA"
"9001  CAMDEN DR","ELK GROVE","95624","CA"
"158  THORNDIKE WAY","FOLSOM","95630","CA"
"151  MAHONIA CIR","SACRAMENTO","95835","CA"
"3900  IRONWOOD DR","EL DORADO HILLS","95762","CA"
"3628  WALKER PARK DR","EL DORADO HILLS","95762","CA"
"5921  PLEASANT VALLEY RD","EL DORADO","95623","CA"
"6851  BEECH AVE","ORANGEVALE","95662","CA"
"9733  SAGE THRASHER CIR","ELK GROVE","95757","CA"
"6509  CLEVELAND CT","ROCKLIN","95765","CA"
"9809  SUMMER GLEN WAY","ELK GROVE","95757","CA"
"2235  MEADOWLAND CT","LINCOLN","95648","CA"
"669  LINLEY LN","LINCOLN","95648","CA"
"7240  ASH RD","FAIR OAKS","95628","CA"
"109  PALABRA CT","FOLSOM","95630","CA"
"220  DUNCAN HILL RD","AUBURN","95603","CA"
"130  AVIATOR CIR","SACRAMENTO","95835","CA"
"5048  APPLE CREEK CT","POLLOCK PINES","95726","CA"
"292  CASTLEWOOD CIR","ROSEVILLE","95678","CA"
"25395  PINEVIEW DR","COLFAX","95713","CA"
"6037  SUNGLOW CT","CARMICHAEL","95608","CA"
"127  GOODELL RD","FOLSOM","95630","CA"
"8390  LA RIVIERA DR","SACRAMENTO","95826","CA"
"573  OTOMITES ST","SOUTH LAKE TAHOE","96150","CA"
"116  JANEWOOD CT","FOLSOM","95630","CA"
"519  FISHER CIR","FOLSOM","95630","CA"
"5027  KLONDIKE WAY","EL DORADO HILLS","95762","CA"
"1125  AUGUSTA WAY","ROSEVILLE","95661","CA"
"2953  BERGAMO WAY","SACRAMENTO","95833","CA"
"2306  HOMEWOOD WAY","CARMICHAEL","95608","CA"
"503  VIOLET LN","LINCOLN","95648","CA"
"3206  ROOT AVE","CARMICHAEL","95608","CA"
"3349  MYNA WAY","SACRAMENTO","95834","CA"
"5547  SAGE DR","ROCKLIN","95765","CA"
"4404  JUNO WAY","SACRAMENTO","95864","CA"
"130  AVIATOR CIR","SACRAMENTO","95835","CA"
"4789  NORWOOD AVE","SACRAMENTO","95838","CA"
"9778  FALCON MEADOW DR","ELK GROVE","95624","CA"
"135  ORRIN DR","AUBURN","95603","CA"
"1859  EMILY LN","LINCOLN","95648","CA"
"4332  CONSTANCE LN","SACRAMENTO","95822","CA"
"3549  BARDOLINO WAY","RANCHO CORDOVA","95670","CA"
"2881  UNITY POINT AVE","SACRAMENTO","95833","CA"
"4557  FOX VALLEY CIR","NORTH HIGHLANDS","95660","CA"
"3080  BRIW RIDGE RD","PLACERVILLE","95667","CA"
"5110  GIBBONS DR","CARMICHAEL","95608","CA"
"8405  DEER FERN CT","ANTELOPE","95843","CA"
"817  7TH AVE","SACRAMENTO","95818","CA"
"2916  BABSON DR","ELK GROVE","95758","CA"
"1968  BONAVISTA WAY","SACRAMENTO","95832","CA"
"6117  LEMON BELL WAY","SACRAMENTO","95824","CA"
"8651  CORDONIZ CT","ORANGEVALE","95662","CA"
"7162  SNOWY BIRCH WAY","SACRAMENTO","95823","CA"
"5470  BURR OAK WAY","FAIR OAKS","95628","CA"
"7517  COTTONTREE WAY","SACRAMENTO","95828","CA"
"7515  QUAIL VISTA LN","CITRUS HEIGHTS","95610","CA"
"1204  SCHOOL ST","FOLSOM","95630","CA"
"4357  FELL ST","SACRAMENTO","95838","CA"
"24  JORDAN CT","SACRAMENTO","95826","CA"
"3524  DOMICH WAY","SACRAMENTO","95821","CA"
"321  Q ST","RIO LINDA","95673","CA"
"8430  CASABLANCA WAY","SACRAMENTO","95828","CA"
"1390  WOODSIDE GLEN WAY","SACRAMENTO","95833","CA"
"6605  WELLSBORO WAY","CITRUS HEIGHTS","95621","CA"
"5328  PIMLICO AVE","SACRAMENTO","95841","CA"
"308  GREENMORE WAY","ROSEVILLE","95678","CA"
"3049  SECRET LAKE TRL","COOL","95614","CA"
"5455  BEAUREGARD WAY","ORANGEVALE","95662","CA"
"3748  DIDCOT CIR","SACRAMENTO","95838","CA"
"8187  TOMMY CIR","SACRAMENTO","95828","CA"
